OBJECT_NAME,OBJECT_ID,EPOCH,MEAN_MOTION,ECCENTRICITY,INCLINATION,RA_OF_ASC_NODE,ARG_OF_PERICENTER,MEAN_ANOMALY,EPHEMERIS_TYPE,CLASSIFICATION_TYPE,NORAD_CAT_ID,ELEMENT_SET_NO,REV_AT_EPOCH,BSTAR,MEAN_MOTION_DOT,MEAN_MOTION_DDOT
DUCHIFAT-1,2014-033M,2026-06-09T15:55:00.117120,15.63096310,.00042507,98.0468,218.7756,128.7819,231.3818,0,U,40021,999,65457,.97274361E-3,.89241E-3,0
NANOSATC-BR1,2014-033Q,2026-06-09T00:53:52.251648,15.31195370,.00035439,98.0734,191.7047,185.9906,174.1292,0,U,40024,999,65273,.49565966E-3,.14864E-3,0
QB50P1,2014-033R,2026-06-09T18:26:22.685568,15.18148380,.00072263,98.0973,171.3946,244.9283,115.1199,0,U,40025,999,65190,.40438593E-3,.8189E-4,0
DTUSAT-2,2014-033W,2026-06-09T16:59:57.614208,15.14922976,.00061229,98.0864,157.9610,256.5032,103.5516,0,U,40030,999,65155,.32693542E-3,.602E-4,0
QB50P2,2014-033Y,2026-06-09T16:52:42.935808,15.15063299,.00072298,98.0753,157.1181,187.2698,172.8429,0,U,40032,999,65153,.31853502E-3,.5888E-4,0
PERSEUS-M1,2014-033AF,2026-06-09T17:50:58.274592,14.95610933,.00107387,97.9644,104.7538,329.6595,30.4002,0,U,40039,999,64952,.1410423E-3,.1507E-4,0
POLYITAN-1,2014-033AJ,2026-06-09T14:40:56.720640,15.32990302,.00080781,98.0951,186.1578,163.3411,196.8096,0,U,40042,999,65243,.54587249E-3,.17344E-3,0
TIGRISAT,2014-033AK,2026-06-09T16:54:41.757408,14.85133283,.00507036,97.7823,310.8886,99.0925,261.6032,0,U,40043,999,64451,.25246185E-3,.2155E-4,0
CANX-4,2014-034C,2026-06-09T09:12:18.892800,14.81250099,.00136702,98.3132,35.4098,40.8785,319.3449,0,U,40055,999,64337,.11495601E-3,.839E-5,0
CANX-5,2014-034D,2026-06-09T15:39:16.744032,14.81268050,.00136657,98.3134,35.7317,40.1713,320.0506,0,U,40056,999,63422,.12067214E-3,.885E-5,0
GONETS-M 10,2014-036C,2026-06-09T21:45:24.631776,12.42945696,.0022378,82.5111,312.1978,155.9268,204.2863,0,U,40063,999,54134,.54474825E-3,.86E-6,0
METEOR-M 2,2014-037A,2026-06-09T21:29:24.670752,14.21460250,.00069636,98.5113,136.8919,62.2775,297.9109,0,U,40069,999,61828,.13211171E-3,.247E-5,0
DX1,2014-037C,2026-06-09T21:46:16.413024,14.89962608,.00059586,98.3861,122.1669,304.0809,55.9841,0,U,40071,999,64502,.15937046E-3,.1473E-4,0
UKUBE-1,2014-037F,2026-06-09T18:19:34.653792,15.13433815,.00021643,98.4238,163.2558,144.4016,215.7357,0,U,40074,999,64743,.48407735E-3,.8577E-4,0
GAOFEN-2,2014-049A,2026-06-09T22:43:05.604096,14.80892055,.00058795,98.0110,225.1607,255.8100,104.2459,0,U,40118,999,63816,.11207941E-3,.813E-5,0
BRITE-PL2 (HEWELIUSZ),2014-049B,2026-06-09T12:57:43.756992,14.94569959,.00151668,97.9090,272.4818,131.1884,229.0646,0,U,40119,999,64030,.18026139E-3,.1894E-4,0
CBERS 4,2014-079A,2026-06-09T22:15:45.467712,14.35506657,.00019962,98.3534,217.9868,71.2166,288.9237,0,U,40336,999,60291,-.4794532E-5,-.56E-6,0
SMAP,2015-003A,2026-06-09T19:58:03.512640,14.63360124,.00012757,98.1275,168.0307,93.5882,266.5466,0,U,40376,999,60654,.85493173E-4,.395E-5,0
GONETS-M 11,2015-020A,2026-06-09T22:11:23.694720,12.42876888,.00169262,82.4875,35.5172,21.0575,339.1198,0,U,40552,999,50783,.13899623E-3,.29E-6,0
GONETS-M 12,2015-020B,2026-06-09T23:29:15.137088,12.42890809,.00156653,82.4909,36.6054,6.4331,353.6946,0,U,40553,999,50783,-.14933532E-3,-.11E-6,0
GONETS-M 13,2015-020C,2026-06-09T22:50:53.454048,12.42870051,.0013999,82.4871,35.2392,352.0980,7.9877,0,U,40554,999,50780,.20474233E-3,.38E-6,0
DMC3-FM1,2015-032A,2026-06-09T22:21:43.536960,14.85732902,.00072274,97.6475,26.3913,78.4340,281.7687,0,U,40715,999,58883,.11560009E-3,.952E-5,0
DMC3-FM2,2015-032B,2026-06-09T21:16:32.363616,14.85734948,.0007678,97.6528,27.9162,82.5016,277.7072,0,U,40716,999,58882,.13046237E-4,.62E-6,0
DMC3-FM3,2015-032C,2026-06-09T21:50:03.458400,14.85723964,.00068311,97.6579,29.6868,82.7614,277.4378,0,U,40717,999,58883,.40419498E-4,.299E-5,0
CARBONITE 1 (CBNT-1),2015-032D,2026-06-09T21:33:36.306432,14.83564001,.00137265,97.6510,339.2708,323.9578,36.0710,0,U,40718,999,58826,.14649407E-3,.1157E-4,0
LILACSAT-2,2015-049K,2026-06-09T22:03:14.234400,15.51205284,.0005246,97.4660,197.4849,280.2645,79.8015,0,U,40908,999,59462,.29593771E-3,.1723E-3,0
